IXPE                    
1 49954U 21121A   24230.41667824  .00011155  00000+0  82321-3 0  9998
2 49954   0.2295 298.9414 0009791 109.8039 332.2388 14.99184656  5876
